ATLAS CENTAUR R/B       
1 06155U 72065B   25317.32932830  .00003415  00000+0  47213-3 0  9997
2 06155  35.0017 267.4649 0033111 112.0639 248.3583 14.77298935824040
SL-8 R/B                
1 08459U 75112B   25317.75337404  .00000757  00000+0  25808-3 0  9997
2 08459  74.0610 232.1708 0015784 347.6237  12.4527 14.38119127615208
SL-3 R/B                
1 10114U 77057B   25317.88748909  .00021167  00000+0  49690-3 0  9991
2 10114  97.5679 120.1145 0007420 350.8070   9.3040 15.42036420650466
SEASAT 1                
1 10967U 78064A   25317.76584335  .00001222  00000+0  38079-3 0  9993
2 10967 108.0066 242.2569 0002323 255.0719 105.0169 14.46014671489754
SL-14 R/B               
1 11267U 79011B   25317.40820887  .00001481  00000+0  14428-3 0  9995
2 11267  82.5260 206.8575 0017704  86.0634 274.2609 14.91719132511444
SL-8 R/B                
1 11574U 79089B   25317.98113297  .00000831  00000+0  25952-3 0  9996
2 11574  74.0679 305.2066 0014985 151.2224 208.9763 14.42255625419420
SL-14 R/B               
1 11672U 80005B   25317.74759353  .00001695  00000+0  16978-3 0  9995
2 11672  82.5158  57.1890 0015619 184.8683 175.2387 14.90737663459218
SL-8 R/B                
1 12139U 81003B   25317.64112978  .00046685  00000+0  12832-2 0  9990
2 12139  82.9337  36.9533 0282523 220.9848 136.9845 15.05565109297184
SL-3 R/B                
1 12465U 81046B   25317.89490882  .00024040  00000+0  62079-3 0  9999
2 12465  81.2330  68.4158 0020602  63.3879 296.9469 15.38779480420604
METEOR PRIRODA          
1 12585U 81065A   25317.57330987  .01215096  10464-2  98252-3 0  9991
2 12585  97.4647  22.3589 0004500 264.1449  95.9324 16.14539865426123
SL-3 R/B                
1 12904U 81103B   25317.89192123  .00015387  00000+0  71664-3 0  9992
2 12904  81.1610 349.1290 0012446 325.6042  34.4382 15.19738591955633
SL-3 R/B                
1 13068U 82013B   25317.89258495  .00011461  00000+0  51629-3 0  9998
2 13068  81.1730 296.3694 0022110 206.0661 153.9459 15.20725989386748
